CCSDS_OMM_VERS = 2.0
CREATION_DATE  = 
ORIGINATOR     = 

OBJECT_NAME    = SL-3 R/B
OBJECT_ID      = 1988-032B
CENTER_NAME    = EARTH
REF_FRAME      = TEME
TIME_SYSTEM    = UTC
MEAN_ELEMENT_THEORY = SGP/SGP4

EPOCH          = 2026-03-07T05:32:19.650336
MEAN_MOTION    = 15.19875582
ECCENTRICITY   = .00242984
INCLINATION    = 97.5193
RA_OF_ASC_NODE = 49.4903
ARG_OF_PERICENTER = 240.6486
MEAN_ANOMALY   = 119.2321

EPHEMERIS_TYPE = 0
CLASSIFICATION_TYPE = U
NORAD_CAT_ID   = 19046
ELEMENT_SET_NO = 999
REV_AT_EPOCH   = 5173
BSTAR          = .38561411E-3
MEAN_MOTION_DOT = .8272E-4
MEAN_MOTION_DDOT = 0

CCSDS_OMM_VERS = 2.0
CREATION_DATE  = 
ORIGINATOR     = 

OBJECT_NAME    = SL-16 R/B
OBJECT_ID      = 1988-039B
CENTER_NAME    = EARTH
REF_FRAME      = TEME
TIME_SYSTEM    = UTC
MEAN_ELEMENT_THEORY = SGP/SGP4

EPOCH          = 2026-03-07T07:15:55.360512
MEAN_MOTION    = 14.19615525
ECCENTRICITY   = .0022633
INCLINATION    = 71.0132
RA_OF_ASC_NODE = 73.5952
ARG_OF_PERICENTER = 337.8199
MEAN_ANOMALY   = 22.1945

EPHEMERIS_TYPE = 0
CLASSIFICATION_TYPE = U
NORAD_CAT_ID   = 19120
ELEMENT_SET_NO = 999
REV_AT_EPOCH   = 95804
BSTAR          = -.49952827E-4
MEAN_MOTION_DOT = -.154E-5
MEAN_MOTION_DDOT = 0

CCSDS_OMM_VERS = 2.0
CREATION_DATE  = 
ORIGINATOR     = 

OBJECT_NAME    = COSMOS 1953
OBJECT_ID      = 1988-050A
CENTER_NAME    = EARTH
REF_FRAME      = TEME
TIME_SYSTEM    = UTC
MEAN_ELEMENT_THEORY = SGP/SGP4

EPOCH          = 2026-03-07T08:01:26.739264
MEAN_MOTION    = 15.28476467
ECCENTRICITY   = .00124418
INCLINATION    = 82.5103
RA_OF_ASC_NODE = 160.6148
ARG_OF_PERICENTER = 130.1292
MEAN_ANOMALY   = 230.1039

EPHEMERIS_TYPE = 0
CLASSIFICATION_TYPE = U
NORAD_CAT_ID   = 19210
ELEMENT_SET_NO = 999
REV_AT_EPOCH   = 3742
BSTAR          = .46734187E-3
MEAN_MOTION_DOT = .13017E-3
MEAN_MOTION_DDOT = 0

CCSDS_OMM_VERS = 2.0
CREATION_DATE  = 
ORIGINATOR     = 

OBJECT_NAME    = SL-8 R/B
OBJECT_ID      = 1988-053B
CENTER_NAME    = EARTH
REF_FRAME      = TEME
TIME_SYSTEM    = UTC
MEAN_ELEMENT_THEORY = SGP/SGP4

EPOCH          = 2026-03-07T07:03:57.802464
MEAN_MOTION    = 14.38914251
ECCENTRICITY   = .00213922
INCLINATION    = 74.0464
RA_OF_ASC_NODE = 116.8819
ARG_OF_PERICENTER = 296.4890
MEAN_ANOMALY   = 133.7694

EPHEMERIS_TYPE = 0
CLASSIFICATION_TYPE = U
NORAD_CAT_ID   = 19257
ELEMENT_SET_NO = 999
REV_AT_EPOCH   = 97625
BSTAR          = .1216266E-3
MEAN_MOTION_DOT = .349E-5
MEAN_MOTION_DDOT = 0

CCSDS_OMM_VERS = 2.0
CREATION_DATE  = 
ORIGINATOR     = 

OBJECT_NAME    = COSMOS 1975
OBJECT_ID      = 1988-093A
CENTER_NAME    = EARTH
REF_FRAME      = TEME
TIME_SYSTEM    = UTC
MEAN_ELEMENT_THEORY = SGP/SGP4

EPOCH          = 2026-03-07T05:40:23.671776
MEAN_MOTION    = 15.28027600
ECCENTRICITY   = .00119741
INCLINATION    = 82.5184
RA_OF_ASC_NODE = 120.1480
ARG_OF_PERICENTER = 171.5017
MEAN_ANOMALY   = 188.6428

EPHEMERIS_TYPE = 0
CLASSIFICATION_TYPE = U
NORAD_CAT_ID   = 19573
ELEMENT_SET_NO = 999
REV_AT_EPOCH   = 1903
BSTAR          = .36526772E-3
MEAN_MOTION_DOT = .10038E-3
MEAN_MOTION_DDOT = 0

CCSDS_OMM_VERS = 2.0
CREATION_DATE  = 
ORIGINATOR     = 

OBJECT_NAME    = SL-14 R/B
OBJECT_ID      = 1988-093B
CENTER_NAME    = EARTH
REF_FRAME      = TEME
TIME_SYSTEM    = UTC
MEAN_ELEMENT_THEORY = SGP/SGP4

EPOCH          = 2026-03-07T07:34:49.119456
MEAN_MOTION    = 14.85653533
ECCENTRICITY   = .00219084
INCLINATION    = 82.5301
RA_OF_ASC_NODE = 44.2722
ARG_OF_PERICENTER = 48.9532
MEAN_ANOMALY   = 70.5236

EPHEMERIS_TYPE = 0
CLASSIFICATION_TYPE = U
NORAD_CAT_ID   = 19574
ELEMENT_SET_NO = 999
REV_AT_EPOCH   = 66
BSTAR          = .97413451E-4
MEAN_MOTION_DOT = .872E-5
MEAN_MOTION_DDOT = 0

CCSDS_OMM_VERS = 2.0
CREATION_DATE  = 
ORIGINATOR     = 

OBJECT_NAME    = SL-16 R/B
OBJECT_ID      = 1988-102B
CENTER_NAME    = EARTH
REF_FRAME      = TEME
TIME_SYSTEM    = UTC
MEAN_ELEMENT_THEORY = SGP/SGP4

EPOCH          = 2026-03-07T06:59:40.102368
MEAN_MOTION    = 14.16150637
ECCENTRICITY   = .00137926
INCLINATION    = 71.0001
RA_OF_ASC_NODE = 156.5433
ARG_OF_PERICENTER = 5.3633
MEAN_ANOMALY   = 354.7635

EPHEMERIS_TYPE = 0
CLASSIFICATION_TYPE = U
NORAD_CAT_ID   = 19650
ELEMENT_SET_NO = 999
REV_AT_EPOCH   = 92655
BSTAR          = .14696472E-3
MEAN_MOTION_DOT = .243E-5
MEAN_MOTION_DDOT = 0

CCSDS_OMM_VERS = 2.0
CREATION_DATE  = 
ORIGINATOR     = 

OBJECT_NAME    = INTERCOSMOS 24
OBJECT_ID      = 1989-080A
CENTER_NAME    = EARTH
REF_FRAME      = TEME
TIME_SYSTEM    = UTC
MEAN_ELEMENT_THEORY = SGP/SGP4

EPOCH          = 2026-03-07T04:21:11.383200
MEAN_MOTION    = 12.59552940
ECCENTRICITY   = .11867366
INCLINATION    = 82.6029
RA_OF_ASC_NODE = 106.0379
ARG_OF_PERICENTER = 298.6480
MEAN_ANOMALY   = 50.0293

EPHEMERIS_TYPE = 0
CLASSIFICATION_TYPE = U
NORAD_CAT_ID   = 20261
ELEMENT_SET_NO = 999
REV_AT_EPOCH   = 66648
BSTAR          = .24990326E-3
MEAN_MOTION_DOT = .84E-5
MEAN_MOTION_DDOT = 0

CCSDS_OMM_VERS = 2.0
CREATION_DATE  = 
ORIGINATOR     = 

OBJECT_NAME    = SL-14 R/B
OBJECT_ID      = 1989-080C
CENTER_NAME    = EARTH
REF_FRAME      = TEME
TIME_SYSTEM    = UTC
MEAN_ELEMENT_THEORY = SGP/SGP4

EPOCH          = 2026-03-07T07:33:59.229504
MEAN_MOTION    = 12.50490705
ECCENTRICITY   = .12304826
INCLINATION    = 82.5973
RA_OF_ASC_NODE = 174.7100
ARG_OF_PERICENTER = 190.1744
MEAN_ANOMALY   = 167.2201

EPHEMERIS_TYPE = 0
CLASSIFICATION_TYPE = U
NORAD_CAT_ID   = 20262
ELEMENT_SET_NO = 999
REV_AT_EPOCH   = 65985
BSTAR          = .27288197E-3
MEAN_MOTION_DOT = .917E-5
MEAN_MOTION_DDOT = 0

CCSDS_OMM_VERS = 2.0
CREATION_DATE  = 
ORIGINATOR     = 

OBJECT_NAME    = DELTA 1 R/B
OBJECT_ID      = 1989-089B
CENTER_NAME    = EARTH
REF_FRAME      = TEME
TIME_SYSTEM    = UTC
MEAN_ELEMENT_THEORY = SGP/SGP4

EPOCH          = 2026-03-07T03:18:16.903296
MEAN_MOTION    = 14.50660348
ECCENTRICITY   = .00703126
INCLINATION    = 97.0707
RA_OF_ASC_NODE = 273.9823
ARG_OF_PERICENTER = 129.9364
MEAN_ANOMALY   = 230.8041

EPHEMERIS_TYPE = 0
CLASSIFICATION_TYPE = U
NORAD_CAT_ID   = 20323
ELEMENT_SET_NO = 999
REV_AT_EPOCH   = 89536
BSTAR          = .10678704E-3
MEAN_MOTION_DOT = .398E-5
MEAN_MOTION_DDOT = 0

CCSDS_OMM_VERS = 2.0
CREATION_DATE  = 
ORIGINATOR     = 

OBJECT_NAME    = ARIANE 40 R/B
OBJECT_ID      = 1990-005H
CENTER_NAME    = EARTH
REF_FRAME      = TEME
TIME_SYSTEM    = UTC
MEAN_ELEMENT_THEORY = SGP/SGP4

EPOCH          = 2026-03-07T04:08:55.744224
MEAN_MOTION    = 14.39868310
ECCENTRICITY   = .00096896
INCLINATION    = 98.3088
RA_OF_ASC_NODE = 126.9093
ARG_OF_PERICENTER = 206.2231
MEAN_ANOMALY   = 153.8468

EPHEMERIS_TYPE = 0
CLASSIFICATION_TYPE = U
NORAD_CAT_ID   = 20443
ELEMENT_SET_NO = 999
REV_AT_EPOCH   = 89244
BSTAR          = .114762E-3
MEAN_MOTION_DOT = .318E-5
MEAN_MOTION_DDOT = 0

CCSDS_OMM_VERS = 2.0
CREATION_DATE  = 
ORIGINATOR     = 

OBJECT_NAME    = DELTA 2 R/B(1)
OBJECT_ID      = 1990-008B
CENTER_NAME    = EARTH
REF_FRAME      = TEME
TIME_SYSTEM    = UTC
MEAN_ELEMENT_THEORY = SGP/SGP4

EPOCH          = 2026-03-06T17:50:47.926464
MEAN_MOTION    = 15.55526764
ECCENTRICITY   = .0086128
INCLINATION    = 35.6041
RA_OF_ASC_NODE = 194.1828
ARG_OF_PERICENTER = 231.5398
MEAN_ANOMALY   = 127.7586

EPHEMERIS_TYPE = 0
CLASSIFICATION_TYPE = U
NORAD_CAT_ID   = 20453
ELEMENT_SET_NO = 999
REV_AT_EPOCH   = 92567
BSTAR          = .10150641E-2
MEAN_MOTION_DOT = .85707E-3
MEAN_MOTION_DDOT = 0

