SL-3 R/B                
1 19046U 88032B   26066.23078299  .00008272  00000+0  38561-3 0  9995
2 19046  97.5193  49.4903 0024298 240.6486 119.2321 15.19875582 51736
SL-16 R/B               
1 19120U 88039B   26066.30272408 -.00000154  00000+0 -49953-4 0  9992
2 19120  71.0132  73.5952 0022633 337.8199  22.1945 14.19615525958044
COSMOS 1953             
1 19210U 88050A   26066.33433726  .00013017  00000+0  46734-3 0  9993
2 19210  82.5103 160.6148 0012441 130.1292 230.1039 15.28476467 37424
SL-8 R/B                
1 19257U 88053B   26066.29441901  .00000349  00000+0  12163-3 0  9999
2 19257  74.0464 116.8819 0021392 296.4890 133.7694 14.38914251976250
COSMOS 1975             
1 19573U 88093A   26066.23638509  .00010038  00000+0  36527-3 0  9996
2 19573  82.5184 120.1480 0011974 171.5017 188.6428 15.28027600 19036
SL-14 R/B               
1 19574U 88093B   26066.31584629  .00000872  00000+0  97413-4 0  9996
2 19574  82.5301  44.2722 0021908  48.9532  70.5236 14.85653533   667
SL-16 R/B               
1 19650U 88102B   26066.29143637  .00000243  00000+0  14696-3 0  9992
2 19650  71.0001 156.5433 0013792   5.3633 354.7635 14.16150637926555
INTERCOSMOS 24          
1 20261U 89080A   26066.18138175  .00000840  00000+0  24990-3 0  9998
2 20261  82.6029 106.0379 1186736 298.6480  50.0293 12.59552940666486
SL-14 R/B               
1 20262U 89080C   26066.31526886  .00000917  00000+0  27288-3 0  9992
2 20262  82.5973 174.7100 1230482 190.1744 167.2201 12.50490705659859
DELTA 1 R/B             
1 20323U 89089B   26066.13769564  .00000398  00000+0  10679-3 0  9990
2 20323  97.0707 273.9823 0070312 129.9364 230.8041 14.50660348895369
ARIANE 40 R/B           
1 20443U 90005H   26066.17286741  .00000318  00000+0  11476-3 0  9996
2 20443  98.3088 126.9093 0009689 206.2231 153.8468 14.39868310892444
DELTA 2 R/B(1)          
1 20453U 90008B   26065.74361026  .00085707  00000+0  10151-2 0  9995
2 20453  35.6041 194.1828 0086128 231.5398 127.7586 15.55526764925675
